{"type": "FeatureCollection", "features": [ {"type": "Feature", "properties": {"norad_id": 43262, "name": "GAOFEN-1 04", "group": "resource", "lat": 0.29811182180938783, "lon": 43.454362755222014, "alt_km": 643.0935605484246, "timestamp": "2025-12-11T15:53:39.199823+00:00", "meta": {"OBJECT_NAME": "GAOFEN-1 04", "OBJECT_ID": "2018-031D", "EPOCH": "2025-12-11T07:45:37.149696", "MEAN_MOTION": 14.76444524, "ECCENTRICITY": 0.00011107, "INCLINATION": 98.0804, "RA_OF_ASC_NODE": 43.1577, "ARG_OF_PERICENTER": 56.7116, "MEAN_ANOMALY": 303.42, "EPHEMERIS_TYPE": 0, "CLASSIFICATION_TYPE": "U", "NORAD_CAT_ID": 43262, "ELEMENT_SET_NO": 999, "REV_AT_EPOCH": 41496, "BSTAR": 0.00022301836, "MEAN_MOTION_DOT": 1.5e-05, "MEAN_MOTION_DDOT": 0}, "tle": {"line1": "1 43262U 18031D   25345.32334664  .00001500  00000+0  22302-3 0  9997", "line2": "2 43262  98.0804  43.1577 0001110  56.7116 303.4200 14.76444524414961"}}, "geometry": {"type": "Point", "coordinates": [43.454362755222014, 0.29811182180938783]}}, {"type": "Feature", "properties": {"norad_id": 43437, "name": "SENTINEL-3B", "group": "resource", "lat": -0.526405357787974, "lon": 50.94273923647597, "alt_km": 805.8976698262768, "timestamp": "2025-12-11T15:53:39.199833+00:00", "meta": {"OBJECT_NAME": "SENTINEL-3B", "OBJECT_ID": "2018-039A", "EPOCH": "2025-12-11T04:06:53.766432", "MEAN_MOTION": 14.26741926, "ECCENTRICITY": 0.0001555, "INCLINATION": 98.6269, "RA_OF_ASC_NODE": 50.3791, "ARG_OF_PERICENTER": 104.5822, "MEAN_ANOMALY": 255.5531, "EPHEMERIS_TYPE": 0, "CLASSIFICATION_TYPE": "U", "NORAD_CAT_ID": 43437, "ELEMENT_SET_NO": 999, "REV_AT_EPOCH": 39731, "BSTAR": 0.00011127868, "MEAN_MOTION_DOT": 2.26e-06, "MEAN_MOTION_DDOT": 0}, "tle": {"line1": "1 43437U 18039A   25345.17145563  .00000226  00000+0  11128-3 0  9998", "line2": "2 43437  98.6269  50.3791 0001555 104.5822 255.5531 14.26741926397317"}}, "geometry": {"type": "Point", "coordinates": [50.94273923647597, -0.526405357787974]}}, {"type": "Feature", "properties": {"norad_id": 43461, "name": "GAOFEN-5 01", "group": "resource", "lat": -37.85902507960737, "lon": 121.98897516049188, "alt_km": 698.7195098273205, "timestamp": "2025-12-11T15:53:39.199843+00:00", "meta": {"OBJECT_NAME": "GAOFEN-5 01", "OBJECT_ID": "2018-043A", "EPOCH": "2025-12-10T15:52:37.152768", "MEAN_MOTION": 14.6040665, "ECCENTRICITY": 0.00010926, "INCLINATION": 98.4324, "RA_OF_ASC_NODE": 307.5925, "ARG_OF_PERICENTER": 348.2801, "MEAN_ANOMALY": 11.8373, "EPHEMERIS_TYPE": 0, "CLASSIFICATION_TYPE": "U", "NORAD_CAT_ID": 43461, "ELEMENT_SET_NO": 999, "REV_AT_EPOCH": 40417, "BSTAR": 0.00018403532, "MEAN_MOTION_DOT": 8.42e-06, "MEAN_MOTION_DDOT": 0}, "tle": {"line1": "1 43461U 18043A   25344.66154112  .00000842  00000+0  18404-3 0  9991", "line2": "2 43461  98.4324 307.5925 0001092 348.2801  11.8373 14.60406650404170"}}, "geometry": {"type": "Point", "coordinates": [121.98897516049188, -37.85902507960737]}}, {"type": "Feature", "properties": {"norad_id": 43484, "name": "GAOFEN-6", "group": "resource", "lat": 28.263273016138783, "lon": -125.80714296948908, "alt_km": 638.0768650624195, "timestamp": "2025-12-11T15:53:39.199853+00:00", "meta": {"OBJECT_NAME": "GAOFEN-6", "OBJECT_ID": "2018-048A", "EPOCH": "2025-12-11T07:04:49.495584", "MEAN_MOTION": 14.76563065, "ECCENTRICITY": 0.00132677, "INCLINATION": 97.8029, "RA_OF_ASC_NODE": 49.6102, "ARG_OF_PERICENTER": 67.9311, "MEAN_ANOMALY": 292.3307, "EPHEMERIS_TYPE": 0, "CLASSIFICATION_TYPE": "U", "NORAD_CAT_ID": 43484, "ELEMENT_SET_NO": 999, "REV_AT_EPOCH": 40566, "BSTAR": 0.00024026567, "MEAN_MOTION_DOT": 1.629e-05, "MEAN_MOTION_DDOT": 0}, "tle": {"line1": "1 43484U 18048A   25345.29501731  .00001629  00000+0  24027-3 0  9996", "line2": "2 43484  97.8029  49.6102 0013267  67.9311 292.3307 14.76563065405668"}}, "geometry": {"type": "Point", "coordinates": [-125.80714296948908, 28.263273016138783]}}, {"type": "Feature", "properties": {"norad_id": 43585, "name": "GAOFEN-11 01", "group": "resource", "lat": 36.13684296817478, "lon": 43.3415730692997, "alt_km": 416.07274646375754, "timestamp": "2025-12-11T15:53:39.199863+00:00", "meta": {"OBJECT_NAME": "GAOFEN-11 01", "OBJECT_ID": "2018-063A", "EPOCH": "2025-12-11T06:26:09.419712", "MEAN_MOTION": 15.4915643, "ECCENTRICITY": 0.00044389, "INCLINATION": 97.1556, "RA_OF_ASC_NODE": 48.2143, "ARG_OF_PERICENTER": 320.6071, "MEAN_ANOMALY": 39.4858, "EPHEMERIS_TYPE": 0, "CLASSIFICATION_TYPE": "U", "NORAD_CAT_ID": 43585, "ELEMENT_SET_NO": 999, "REV_AT_EPOCH": 41119, "BSTAR": 0.00050588116, "MEAN_MOTION_DOT": 0.00027498, "MEAN_MOTION_DDOT": 0}, "tle": {"line1": "1 43585U 18063A   25345.26816458  .00027498  00000+0  50588-3 0  9990", "line2": "2 43585  97.1556  48.2143 0004438 320.6071  39.4858 15.49156430411191"}}, "geometry": {"type": "Point", "coordinates": [43.3415730692997, 36.13684296817478]}}, {"type": "Feature", "properties": {"norad_id": 43613, "name": "ICESAT-2", "group": "resource", "lat": -33.93097861482039, "lon": 59.096522112607325, "alt_km": 486.289312404434, "timestamp": "2025-12-11T15:53:39.199873+00:00", "meta": {"OBJECT_NAME": "ICESAT-2", "OBJECT_ID": "2018-070A", "EPOCH": "2025-12-11T05:31:58.704384", "MEAN_MOTION": 15.28336638, "ECCENTRICITY": 0.00025939, "INCLINATION": 92.0043, "RA_OF_ASC_NODE": 240.3301, "ARG_OF_PERICENTER": 152.7163, "MEAN_ANOMALY": 207.4223, "EPHEMERIS_TYPE": 0, "CLASSIFICATION_TYPE": "U", "NORAD_CAT_ID": 43613, "ELEMENT_SET_NO": 999, "REV_AT_EPOCH": 40375, "BSTAR": 0.00080516394, "MEAN_MOTION_DOT": 0.00022244, "MEAN_MOTION_DDOT": 0}, "tle": {"line1": "1 43613U 18070A   25345.23054056  .00022244  00000+0  80516-3 0  9993", "line2": "2 43613  92.0043 240.3301 0002593 152.7163 207.4223 15.28336638403758"}}, "geometry": {"type": "Point", "coordinates": [59.096522112607325, -33.93097861482039]}}, {"type": "Feature", "properties": {"norad_id": 43719, "name": "HYSIS", "group": "resource", "lat": 1.409187800763533, "lon": -131.15653393940326, "alt_km": 636.9680788985379, "timestamp": "2025-12-11T15:53:39.199884+00:00", "meta": {"OBJECT_NAME": "HYSIS", "OBJECT_ID": "2018-096A", "EPOCH": "2025-12-11T06:58:09.615648", "MEAN_MOTION": 14.78640996, "ECCENTRICITY": 0.00014827, "INCLINATION": 98.0093, "RA_OF_ASC_NODE": 48.275, "ARG_OF_PERICENTER": 59.1716, "MEAN_ANOMALY": 300.964, "EPHEMERIS_TYPE": 0, "CLASSIFICATION_TYPE": "U", "NORAD_CAT_ID": 43719, "ELEMENT_SET_NO": 999, "REV_AT_EPOCH": 37965, "BSTAR": 0.00039747608, "MEAN_MOTION_DOT": 2.86e-05, "MEAN_MOTION_DDOT": 0}, "tle": {"line1": "1 43719U 18096A   25345.29038907  .00002860  00000+0  39748-3 0  9994", "line2": "2 43719  98.0093  48.2750 0001482  59.1716 300.9640 14.78640996379651"}}, "geometry": {"type": "Point", "coordinates": [-131.15653393940326, 1.409187800763533]}}, {"type": "Feature", "properties": {"norad_id": 43783, "name": "KAZSTSAT", "group": "resource", "lat": -25.421875833598374, "lon": 24.46226264600593, "alt_km": 570.4386372303206, "timestamp": "2025-12-11T15:53:39.199894+00:00", "meta": {"OBJECT_NAME": "KAZSTSAT", "OBJECT_ID": "2018-099AB", "EPOCH": "2025-12-11T01:35:34.662624", "MEAN_MOTION": 14.99344949, "ECCENTRICITY": 0.00059901, "INCLINATION": 97.4559, "RA_OF_ASC_NODE": 20.3232, "ARG_OF_PERICENTER": 337.2682, "MEAN_ANOMALY": 22.8276, "EPHEMERIS_TYPE": 0, "CLASSIFICATION_TYPE": "U", "NORAD_CAT_ID": 43783, "ELEMENT_SET_NO": 999, "REV_AT_EPOCH": 38311, "BSTAR": 0.00018724349, "MEAN_MOTION_DOT": 2.234e-05, "MEAN_MOTION_DDOT": 0}, "tle": {"line1": "1 43783U 18099AB  25345.06637341  .00002234  00000+0  18724-3 0  9996", "line2": "2 43783  97.4559  20.3232 0005990 337.2682  22.8276 14.99344949383111"}}, "geometry": {"type": "Point", "coordinates": [24.46226264600593, -25.421875833598374]}}, {"type": "Feature", "properties": {"norad_id": 43831, "name": "SAUDISAT 5A", "group": "resource", "lat": -73.09567741676958, "lon": 70.9531715684035, "alt_km": 503.42747315888664, "timestamp": "2025-12-11T15:53:39.199905+00:00", "meta": {"OBJECT_NAME": "SAUDISAT 5A", "OBJECT_ID": "2018-102A", "EPOCH": "2025-12-11T06:46:37.267392", "MEAN_MOTION": 15.25641937, "ECCENTRICITY": 0.00117995, "INCLINATION": 97.3352, "RA_OF_ASC_NODE": 45.5012, "ARG_OF_PERICENTER": 80.7426, "MEAN_ANOMALY": 279.5147, "EPHEMERIS_TYPE": 0, "CLASSIFICATION_TYPE": "U", "NORAD_CAT_ID": 43831, "ELEMENT_SET_NO": 999, "REV_AT_EPOCH": 38700, "BSTAR": 0.00083946451, "MEAN_MOTION_DOT": 0.00021364, "MEAN_MOTION_DDOT": 0}, "tle": {"line1": "1 43831U 18102A   25345.28237578  .00021364  00000+0  83946-3 0  9990", "line2": "2 43831  97.3352  45.5012 0011799  80.7426 279.5147 15.25641937387007"}}, "geometry": {"type": "Point", "coordinates": [70.9531715684035, -73.09567741676958]}}, {"type": "Feature", "properties": {"norad_id": 43833, "name": "SAUDISAT 5B", "group": "resource", "lat": -23.80939442382612, "lon": 51.87316247540617, "alt_km": 495.63626125303927, "timestamp": "2025-12-11T15:53:39.199916+00:00", "meta": {"OBJECT_NAME": "SAUDISAT 5B", "OBJECT_ID": "2018-102C", "EPOCH": "2025-12-11T06:33:24.372000", "MEAN_MOTION": 15.25993936, "ECCENTRICITY": 0.00124788, "INCLINATION": 97.3446, "RA_OF_ASC_NODE": 48.2282, "ARG_OF_PERICENTER": 83.0053, "MEAN_ANOMALY": 277.2604, "EPHEMERIS_TYPE": 0, "CLASSIFICATION_TYPE": "U", "NORAD_CAT_ID": 43833, "ELEMENT_SET_NO": 999, "REV_AT_EPOCH": 38711, "BSTAR": 0.00082798963, "MEAN_MOTION_DOT": 0.000213, "MEAN_MOTION_DDOT": 0}, "tle": {"line1": "1 43833U 18102C   25345.27319875  .00021300  00000+0  82799-3 0  9997", "line2": "2 43833  97.3446  48.2282 0012478  83.0053 277.2604 15.25993936387113"}}, "geometry": {"type": "Point", "coordinates": [51.87316247540617, -23.80939442382612]}}]}